NORAD_CAT_ID,OBJECT_NAME,OBJECT_TYPE,EPOCH,MEAN_MOTION,ECCENTRICITY,INCLINATION,RA_OF_ASC_NODE,ARG_OF_PERICENTER,MEAN_ANOMALY,BSTAR,MEAN_MOTION_DOT,MEAN_MOTION_DDOT,TLE_LINE0,TLE_LINE1,TLE_LINE2,SEMIMAJOR_AXIS,PERIOD,APOGEE,PERIGEE,DECAYED
54170.0,STARLINK-5155,PAYLOAD,2023-05-10 17:26:48,15.08841462,0.0001112,53.2157,325.8144,84.2132,275.8987,7.1694e-05,8.53e-06,0.0,0 STARLINK-5155,1 54170U 22141P   23130.72695588  .00000853  00000-0  71694-4 0  9993,2 54170  53.2157 325.8144 0001112  84.2132 275.8987 15.08841462 29752,6917.876,95.437,540.51,538.972,0.0
54170.0,STARLINK-5155,PAYLOAD,2023-05-10 20:37:34,15.08850069,9.44e-05,53.2163,325.22,93.1655,266.9445,0.00013728,1.898e-05,0.0,0 STARLINK-5155,1 54170U 22141P   23130.85943043  .00001898  00000-0  13728-3 0  9992,2 54170  53.2163 325.2200 0000944  93.1655 266.9445 15.08850069 29783,6917.85,95.437,540.368,539.062,0.0
54170.0,STARLINK-5155,PAYLOAD,2023-05-11 06:09:53,15.08842932,0.0001026,53.2159,323.4356,90.3917,269.7193,6.5041e-05,7.48e-06,0.0,0 STARLINK-5155,1 54170U 22141P   23131.25687422  .00000748  00000-0  65041-4 0  9992,2 54170  53.2159 323.4356 0001026  90.3917 269.7193 15.08842932 29839,6917.871,95.437,540.446,539.027,0.0
54170.0,STARLINK-5155,PAYLOAD,2023-05-11 18:52:59,15.08838342,0.0001014,53.2156,321.057,80.9436,279.1671,0.0001314,1.804e-05,0.0,0 STARLINK-5155,1 54170U 22141P   23131.78679791  .00001804  00000-0  13140-3 0  9996,2 54170  53.2156 321.0570 0001014  80.9436 279.1671 15.08838342 29922,6917.885,95.438,540.452,539.049,0.0
54170.0,STARLINK-5155,PAYLOAD,2023-05-12 18:43:46,15.08842887,0.000112,53.2164,316.5943,84.8647,275.2472,5.3027e-05,5.56e-06,0.0,0 STARLINK-5155,1 54170U 22141P   23132.78039817  .00000556  00000-0  53027-4 0  9998,2 54170  53.2164 316.5943 0001120  84.8647 275.2472 15.08842887 30072,6917.872,95.437,540.511,538.962,0.0
54170.0,STARLINK-5155,PAYLOAD,2023-05-13 18:34:33,15.08844846,0.0001053,53.216,312.135,84.371,275.7402,0.00019092,2.752e-05,0.0,0 STARLINK-5155,1 54170U 22141P   23133.77399787  .00002752  00000-0  19092-3 0  9996,2 54170  53.2160 312.1350 0001053  84.3710 275.7402 15.08844846 30214,6917.866,95.437,540.459,539.002,0.0
54170.0,STARLINK-5155,PAYLOAD,2023-05-13 20:09:56,15.08847315,0.0001087,53.2153,311.8389,83.3765,276.7351,0.0002272,3.331e-05,0.0,0 STARLINK-5155,1 54170U 22141P   23133.84023675  .00003331  00000-0  22720-3 0  9990,2 54170  53.2153 311.8389 0001087  83.3765 276.7351 15.08847315 30230,6917.858,95.437,540.475,538.971,0.0
54170.0,STARLINK-5155,PAYLOAD,2023-05-13 23:20:42,15.08854185,0.000107,53.2155,311.2445,81.3447,278.7667,0.0002677,3.977e-05,0.0,0 STARLINK-5155,1 54170U 22141P   23133.97271272  .00003977  00000-0  26770-3 0  9997,2 54170  53.2155 311.2445 0001070  81.3447 278.7667 15.08854185 30242,6917.837,95.437,540.442,538.962,0.0
54170.0,STARLINK-5155,PAYLOAD,2023-05-14 18:25:20,15.08839733,0.0001038,53.2158,307.6742,88.1637,271.9474,6.3187e-05,7.18e-06,0.0,0 STARLINK-5155,1 54170U 22141P   23134.76760053  .00000718  00000-0  63187-4 0  9999,2 54170  53.2158 307.6742 0001038  88.1637 271.9474 15.08839733 30360,6917.881,95.438,540.464,539.028,0.0
54170.0,STARLINK-5155,PAYLOAD,2023-05-15 10:19:12,15.08834841,9.26e-05,53.2157,304.7009,82.7446,277.3652,-0.00014411,-2.58e-05,0.0,0 STARLINK-5155,1 54170U 22141P   23135.43000039 -.00002580  00000-0 -14411-3 0  9991,2 54170  53.2157 304.7009 0000926  82.7446 277.3652 15.08834841 30471,6917.896,95.438,540.402,539.121,0.0
54170.0,STARLINK-5155,PAYLOAD,2023-05-15 18:16:07,15.08839512,9.88e-05,53.2154,303.2144,80.0084,280.102,1.3656e-05,-7e-07,0.0,0 STARLINK-5155,1 54170U 22141P   23135.76119977 -.00000070  00000-0  13656-4 0  9991,2 54170  53.2154 303.2144 0000988  80.0084 280.1020 15.08839512 30526,6917.882,95.438,540.43,539.063,0.0
54170.0,STARLINK-5155,PAYLOAD,2023-05-16 10:09:59,15.08836226,8.98e-05,53.2149,300.2408,80.7917,279.3177,0.00013167,1.808e-05,0.0,0 STARLINK-5155,1 54170U 22141P   23136.42360541  .00001808  00000-0  13167-3 0  9995,2 54170  53.2149 300.2408 0000898  80.7917 279.3177 15.08836226 30614,6917.892,95.438,540.378,539.136,0.0
54170.0,STARLINK-5155,PAYLOAD,2023-05-16 18:06:55,15.08837302,9.02e-05,53.215,298.7537,80.5982,279.5112,8.835e-05,1.119e-05,0.0,0 STARLINK-5155,1 54170U 22141P   23136.75480565  .00001119  00000-0  88350-4 0  9992,2 54170  53.2150 298.7537 0000902  80.5982 279.5112 15.08837302 30679,6917.889,95.438,540.378,539.13,0.0
54170.0,STARLINK-5155,PAYLOAD,2023-05-17 17:57:42,15.08841882,0.0001037,53.2154,294.2933,84.2492,275.8619,0.00016604,2.356e-05,0.0,0 STARLINK-5155,1 54170U 22141P   23137.74840548  .00002356  00000-0  16604-3 0  9999,2 54170  53.2154 294.2933 0001037  84.2492 275.8619 15.08841882 30816,6917.875,95.437,540.457,539.022,0.0
54170.0,STARLINK-5155,PAYLOAD,2023-05-18 09:51:33,15.08842009,0.0001094,53.2162,291.3193,87.0991,273.0127,0.00013547,1.869e-05,0.0,0 STARLINK-5155,1 54170U 22141P   23138.41080598  .00001869  00000-0  13547-3 0  9996,2 54170  53.2162 291.3193 0001094  87.0991 273.0127 15.08842009 30927,6917.874,95.437,540.496,538.982,0.0
54170.0,STARLINK-5155,PAYLOAD,2023-05-18 17:48:29,15.08843189,0.0001095,53.216,289.8323,86.4464,273.6653,0.00013281,1.827e-05,0.0,0 STARLINK-5155,1 54170U 22141P   23138.74200538  .00001827  00000-0  13281-3 0  9999,2 54170  53.2160 289.8323 0001095  86.4464 273.6653 15.08843189 30976,6917.871,95.437,540.493,538.978,0.0
54170.0,STARLINK-5155,PAYLOAD,2023-05-19 09:42:20,15.0884138,0.0001102,53.2154,286.858,85.0009,275.1109,7.6777e-05,9.34e-06,0.0,0 STARLINK-5155,1 54170U 22141P   23139.40440620  .00000934  00000-0  76777-4 0  9999,2 54170  53.2154 286.8580 0001102  85.0009 275.1109 15.08841380 31065,6917.876,95.437,540.504,538.979,0.0
54170.0,STARLINK-5155,PAYLOAD,2023-05-19 16:03:53,15.08842027,0.0001105,53.2155,285.6685,84.5622,275.5496,8.2992e-05,1.033e-05,0.0,0 STARLINK-5155,1 54170U 22141P   23139.66936591  .00001033  00000-0  82992-4 0  9991,2 54170  53.2155 285.6685 0001105  84.5622 275.5496 15.08842027 31115,6917.874,95.437,540.504,538.975,0.0
54170.0,STARLINK-5155,PAYLOAD,2023-05-20 15:54:39,15.08848731,0.0001011,53.215,281.2061,92.8231,267.2877,0.00019777,2.862e-05,0.0,0 STARLINK-5155,1 54170U 22141P   23140.66296074  .00002862  00000-0  19777-3 0  9999,2 54170  53.2150 281.2061 0001011  92.8231 267.2877 15.08848731 31258,6917.854,95.437,540.418,539.019,0.0
54170.0,STARLINK-5155,PAYLOAD,2023-05-20 19:05:25,15.08856317,0.0001235,53.2166,280.6099,104.3846,255.7283,0.00023141,3.399e-05,0.0,0 STARLINK-5155,1 54170U 22141P   23140.79543622  .00003399  00000-0  23141-3 0  9993,2 54170  53.2166 280.6099 0001235 104.3846 255.7283 15.08856317 31283,6917.831,95.437,540.55,538.841,0.0
54170.0,STARLINK-5155,PAYLOAD,2023-05-21 18:56:14,15.08832176,9.88e-05,53.2158,276.1509,99.2399,260.8705,-2.6311e-05,-7.06e-06,0.0,0 STARLINK-5155,1 54170U 22141P   23141.78905201 -.00000706  00000-0 -26311-4 0  9992,2 54170  53.2158 276.1509 0000988  99.2399 260.8705 15.08832176 31428,6917.904,95.438,540.453,539.086,0.0
54170.0,STARLINK-5155,PAYLOAD,2023-05-22 09:14:42,15.08841518,9.11e-05,53.2157,273.4757,95.9178,264.1918,0.00013169,1.809e-05,0.0,0 STARLINK-5155,1 54170U 22141P   23142.38520960  .00001809  00000-0  13169-3 0  9993,2 54170  53.2157 273.4757 0000911  95.9178 264.1918 15.08841518 31519,6917.876,95.437,540.371,539.111,0.0
54170.0,STARLINK-5155,PAYLOAD,2023-05-22 15:36:14,15.08849797,9.03e-05,53.2152,272.2865,98.7008,261.4086,0.00036501,5.528e-05,0.0,0 STARLINK-5155,1 54170U 22141P   23142.65016682  .00005528  00000-0  36501-3 0  9991,2 54170  53.2152 272.2865 0000903  98.7008 261.4086 15.08849797 31563,6917.85,95.437,540.34,539.091,0.0
54170.0,STARLINK-5155,PAYLOAD,2023-05-23 09:05:29,15.08841461,9.28e-05,53.2155,269.0156,95.4782,264.6316,0.00028009,4.173e-05,0.0,0 STARLINK-5155,1 54170U 22141P   23143.37881284  .00004173  00000-0  28009-3 0  9998,2 54170  53.2155 269.0156 0000928  95.4782 264.6316 15.08841461 31665,6917.876,95.437,540.383,539.099,0.0
54170.0,STARLINK-5155,PAYLOAD,2023-05-23 13:51:38,15.08839906,9.06e-05,53.2159,268.1233,99.2096,260.8999,0.00014729,2.057e-05,0.0,0 STARLINK-5155,1 54170U 22141P   23143.57753239  .00002057  00000-0  14729-3 0  9991,2 54170  53.2159 268.1233 0000906  99.2096 260.8999 15.08839906 31702,6917.881,95.438,540.372,539.119,0.0
54170.0,STARLINK-5155,PAYLOAD,2023-05-24 00:59:20,15.08839994,9.69e-05,53.2162,266.0421,92.7467,267.3636,0.00011861,1.6e-05,0.0,0 STARLINK-5155,1 54170U 22141P   23144.04121369  .00001600  00000-0  11861-3 0  9994,2 54170  53.2162 266.0421 0000969  92.7467 267.3636 15.08839994 31764,6917.88,95.438,540.416,539.075,0.0
54170.0,STARLINK-5155,PAYLOAD,2023-05-24 15:17:48,15.08845991,8.9e-05,53.2158,263.3649,88.5366,271.5728,0.00014375,2.001e-05,0.0,0 STARLINK-5155,1 54170U 22141P   23144.63737039  .00002001  00000-0  14375-3 0  9995,2 54170  53.2158 263.3649 0000890  88.5366 271.5728 15.08845991 31869,6917.862,95.437,540.343,539.111,0.0
54170.0,STARLINK-5155,PAYLOAD,2023-05-25 15:08:35,15.08847692,9.97e-05,53.2157,258.9061,85.4227,274.6879,0.00024652,3.639e-05,0.0,0 STARLINK-5155,1 54170U 22141P   23145.63097042  .00003639  00000-0  24652-3 0  9996,2 54170  53.2157 258.9061 0000997  85.4227 274.6879 15.08847692 32004,6917.857,95.437,540.412,539.032,0.0
54170.0,STARLINK-5155,PAYLOAD,2023-05-26 13:23:59,15.08841885,9.35e-05,53.2144,254.7435,80.9011,279.2087,5.2228e-05,5.44e-06,0.0,0 STARLINK-5155,1 54170U 22141P   23146.55833231  .00000544  00000-0  52228-4 0  9999,2 54170  53.2144 254.7435 0000935  80.9011 279.2087 15.08841885 32158,6917.875,95.437,540.386,539.093,0.0
54170.0,STARLINK-5155,PAYLOAD,2023-05-26 14:59:22,15.08843574,9.39e-05,53.2145,254.4457,81.4185,278.6913,9.2451e-05,1.184e-05,0.0,0 STARLINK-5155,1 54170U 22141P   23146.62457162  .00001184  00000-0  92451-4 0  9995,2 54170  53.2145 254.4457 0000939  81.4185 278.6913 15.08843574 32150,6917.869,95.437,540.384,539.085,0.0
